{
  "norad_id": 64227,
  "name": "STARLINK-34330",
  "history": [
    {
      "epoch": "2026-03-28T20:58:54.339456Z",
      "apogee_km": 475.9928871162492,
      "perigee_km": 474.41881133064,
      "latitude_deg": 5.385888228905343e-05,
      "longitude_deg": 169.42099950233828,
      "height_km": 476.203985835785,
      "semi_major_axis_km": 6853.342849223444,
      "eccentricity": 0.00011484,
      "inclination_deg": 53.1633,
      "raan_deg": 310.4358,
      "arg_perigee_deg": 97.2657,
      "mean_anomaly_deg": 262.8475,
      "mean_motion_rev_day": 15.30203088
    },
    {
      "epoch": "2026-03-29T00:07:00.705792Z",
      "apogee_km": 475.9946379179237,
      "perigee_km": 474.385476724864,
      "latitude_deg": -2.1737350849499442e-05,
      "longitude_deg": 121.66096268475341,
      "height_km": 476.091702939713,
      "semi_major_axis_km": 6853.327057321394,
      "eccentricity": 0.0001174,
      "inclination_deg": 53.1612,
      "raan_deg": 309.8311,
      "arg_perigee_deg": 90.2353,
      "mean_anomaly_deg": 269.8782,
      "mean_motion_rev_day": 15.30208377
    },
    {
      "epoch": "2026-03-29T07:57:16.788384Z",
      "apogee_km": 476.0166505289644,
      "perigee_km": 474.3455374449268,
      "latitude_deg": 2.615303468027462e-05,
      "longitude_deg": 2.254000691948197,
      "height_km": 476.1682804937973,
      "semi_major_axis_km": 6853.318093986945,
      "eccentricity": 0.00012192,
      "inclination_deg": 53.1608,
      "raan_deg": 308.313,
      "arg_perigee_deg": 96.1109,
      "mean_anomaly_deg": 264.0031,
      "mean_motion_rev_day": 15.30211379
    },
    {
      "epoch": "2026-03-30T13:44:17.559744Z",
      "apogee_km": 476.1118399563111,
      "perigee_km": 474.60311168240423,
      "latitude_deg": 3.923801568293948e-05,
      "longitude_deg": -91.48636939627929,
      "height_km": 476.66438317065297,
      "semi_major_axis_km": 6853.494475819357,
      "eccentricity": 0.00011007,
      "inclination_deg": 53.1622,
      "raan_deg": 302.549,
      "arg_perigee_deg": 237.4437,
      "mean_anomaly_deg": 122.6458,
      "mean_motion_rev_day": 15.30152307
    },
    {
      "epoch": "2026-03-30T21:34:33.717504Z",
      "apogee_km": 475.9424435614328,
      "perigee_km": 474.46650794121433,
      "latitude_deg": -4.054330591149906e-06,
      "longitude_deg": 149.10858683354027,
      "height_km": 476.1277050990353,
      "semi_major_axis_km": 6853.341475751324,
      "eccentricity": 0.00010768,
      "inclination_deg": 53.16,
      "raan_deg": 301.0332,
      "arg_perigee_deg": 91.9328,
      "mean_anomaly_deg": 268.1796,
      "mean_motion_rev_day": 15.30203548
    },
    {
      "epoch": "2026-03-31T06:58:52.895136Z",
      "apogee_km": 476.10075098729794,
      "perigee_km": 474.2955825043764,
      "latitude_deg": -4.094829438287791e-05,
      "longitude_deg": 5.822090011206583,
      "height_km": 476.13468235516575,
      "semi_major_axis_km": 6853.335166745836,
      "eccentricity": 0.0001317,
      "inclination_deg": 53.1597,
      "raan_deg": 299.2129,
      "arg_perigee_deg": 92.4465,
      "mean_anomaly_deg": 267.6686,
      "mean_motion_rev_day": 15.30205661
    },
    {
      "epoch": "2026-04-01T20:36:09.530496Z",
      "apogee_km": 475.89878551402944,
      "perigee_km": 474.4746648439359,
      "latitude_deg": 3.0309374494636586e-05,
      "longitude_deg": 152.67677977680086,
      "height_km": 476.22000322440863,
      "semi_major_axis_km": 6853.323725178982,
      "eccentricity": 0.0001039,
      "inclination_deg": 53.1575,
      "raan_deg": 291.9319,
      "arg_perigee_deg": 100.9401,
      "mean_anomaly_deg": 259.1717,
      "mean_motion_rev_day": 15.30209493
    },
    {
      "epoch": "2026-04-02T20:06:57.076704Z",
      "apogee_km": 475.7638680308746,
      "perigee_km": 474.47518167394173,
      "latitude_deg": 1.813017011595621e-06,
      "longitude_deg": 154.4601969936406,
      "height_km": 475.7989744742578,
      "semi_major_axis_km": 6853.256524852408,
      "eccentricity": 9.402e-05,
      "inclination_deg": 53.1576,
      "raan_deg": 287.3791,
      "arg_perigee_deg": 70.1396,
      "mean_anomaly_deg": 289.9706,
      "mean_motion_rev_day": 15.30232
    },
    {
      "epoch": "2026-04-03T19:37:45.268320Z",
      "apogee_km": 475.9679479453007,
      "perigee_km": 474.48899167691616,
      "latitude_deg": -4.915250117655123e-06,
      "longitude_deg": 156.24283315911998,
      "height_km": 476.0220139223918,
      "semi_major_axis_km": 6853.365469811109,
      "eccentricity": 0.0001079,
      "inclination_deg": 53.1575,
      "raan_deg": 282.8282,
      "arg_perigee_deg": 81.8731,
      "mean_anomaly_deg": 278.2392,
      "mean_motion_rev_day": 15.30195512
    },
    {
      "epoch": "2026-04-04T17:34:29.348832Z",
      "apogee_km": 475.6971044636948,
      "perigee_km": 474.30865832372365,
      "latitude_deg": -1.9913683920475392e-05,
      "longitude_deg": -178.08992038604194,
      "height_km": 475.709688289754,
      "semi_major_axis_km": 6853.1398813937085,
      "eccentricity": 0.0001013,
      "inclination_deg": 53.1572,
      "raan_deg": 278.5804,
      "arg_perigee_deg": 73.9959,
      "mean_anomaly_deg": 286.1153,
      "mean_motion_rev_day": 15.30271068
    },
    {
      "epoch": "2026-04-05T12:23:08.639808Z",
      "apogee_km": 475.76941946655916,
      "perigee_km": 474.81226973378216,
      "latitude_deg": 2.072116730827045e-06,
      "longitude_deg": -104.6652543765702,
      "height_km": 475.73075016574046,
      "semi_major_axis_km": 6853.427844600171,
      "eccentricity": 6.983e-05,
      "inclination_deg": 53.159,
      "raan_deg": 274.9413,
      "arg_perigee_deg": 16.2505,
      "mean_anomaly_deg": 343.8518,
      "mean_motion_rev_day": 15.30174622
    },
    {
      "epoch": "2026-04-05T18:39:21.826944Z",
      "apogee_km": 475.8886087317769,
      "perigee_km": 474.6645890630152,
      "latitude_deg": -2.819488193850146e-05,
      "longitude_deg": 159.8081629108103,
      "height_km": 476.3146799874281,
      "semi_major_axis_km": 6853.413598897396,
      "eccentricity": 8.93e-05,
      "inclination_deg": 53.158,
      "raan_deg": 273.7272,
      "arg_perigee_deg": 103.1939,
      "mean_anomaly_deg": 256.9161,
      "mean_motion_rev_day": 15.30179393
    },
    {
      "epoch": "2026-04-05T18:39:21.827808Z",
      "apogee_km": 475.8883345952336,
      "perigee_km": 474.66486319955857,
      "latitude_deg": -2.4600218478866914e-05,
      "longitude_deg": 159.8081619793232,
      "height_km": 476.3146174173439,
      "semi_major_axis_km": 6853.413598897396,
      "eccentricity": 8.926e-05,
      "inclination_deg": 53.158,
      "raan_deg": 273.7272,
      "arg_perigee_deg": 103.1939,
      "mean_anomaly_deg": 256.9161,
      "mean_motion_rev_day": 15.30179393
    },
    {
      "epoch": "2026-04-06T18:10:09.750720Z",
      "apogee_km": 475.89875252339607,
      "perigee_km": 474.4215928507947,
      "latitude_deg": -4.7314643722335596e-05,
      "longitude_deg": 161.59450657210846,
      "height_km": 476.2112245911109,
      "semi_major_axis_km": 6853.297172687095,
      "eccentricity": 0.00010777,
      "inclination_deg": 53.1595,
      "raan_deg": 269.1789,
      "arg_perigee_deg": 101.934,
      "mean_anomaly_deg": 258.1781,
      "mean_motion_rev_day": 15.30218386
    },
    {
      "epoch": "2026-04-07T17:40:57.250272Z",
      "apogee_km": 475.8579612780286,
      "perigee_km": 474.4379606341181,
      "latitude_deg": -3.2405197614372896e-05,
      "longitude_deg": 163.37654753924053,
      "height_km": 476.0306901519809,
      "semi_major_axis_km": 6853.284960956073,
      "eccentricity": 0.0001036,
      "inclination_deg": 53.1591,
      "raan_deg": 264.6245,
      "arg_perigee_deg": 88.7426,
      "mean_anomaly_deg": 271.3693,
      "mean_motion_rev_day": 15.30222476
    },
    {
      "epoch": "2026-04-08T14:03:38.817216Z",
      "apogee_km": 475.876069153358,
      "perigee_km": 474.5957220290038,
      "latitude_deg": -4.277379215150404e-05,
      "longitude_deg": -147.0757618381155,
      "height_km": 476.1762190326616,
      "semi_major_axis_km": 6853.37289559118,
      "eccentricity": 9.341e-05,
      "inclination_deg": 53.1594,
      "raan_deg": 260.6823,
      "arg_perigee_deg": 93.7487,
      "mean_anomaly_deg": 266.362,
      "mean_motion_rev_day": 15.30193025
    }
  ]
}